GLOBALSTAR M035         
1 25851U 99037A   25063.35207564 -.00000048  00000+0  59465-3 0  9991
2 25851  51.9944 288.7630 0013789 167.8591   2.8891 11.04536623 84678
GLOBALSTAR M032         
1 25852U 99037B   25063.46621012  .00000014  00000+0  25813-2 0  9993
2 25852  51.9938 120.9253 0010919 352.1231   7.9396 11.19061038123064
GLOBALSTAR M051         
1 25853U 99037C   25063.30206393 -.00000044  00000+0  68577-3 0  9997
2 25853  51.9797 293.9199 0001551  50.4862 309.6085 11.42204289120403
GLOBALSTAR M030         
1 25854U 99037D   25063.37698843 -.00000098  00000+0 -48923-3 0  9993
2 25854  51.9865 106.5034 0003916 217.4721 142.5823 11.55099894137931
GLOBALSTAR M048         
1 25872U 99041A   25063.37203347 -.00000058  00000+0  31443-3 0  9993
2 25872  51.9341 224.7279 0013062   8.0591 358.9837 11.33855078113095
GLOBALSTAR M026         
1 25873U 99041B   25063.41628249 -.00000009  00000+0  20140-2 0  9998
2 25873  52.0021  47.6733 0001705  87.6897  83.2546 11.06828698136888
GLOBALSTAR M043         
1 25874U 99041C   25063.15318508 -.00000017  00000+0  15371-2 0  9993
2 25874  51.9435 328.7095 0013624 131.1152  18.4620 11.25690693111049
GLOBALSTAR M028         
1 25875U 99041D   25063.37222730 -.00000049  00000+0  32810-3 0  9992
2 25875  51.9618 145.6036 0063453 203.2932 156.5049 12.50578308177066
